[{"OBJECT_NAME":"STARLINK-4190","OBJECT_ID":"2022-076R","EPOCH":"2026-03-09T08:09:17.691840","MEAN_MOTION":15.08837005,"ECCENTRICITY":0.00010666,"INCLINATION":53.216,"RA_OF_ASC_NODE":95.6918,"ARG_OF_PERICENTER":72.4522,"MEAN_ANOMALY":287.6587,"EPHEMERIS_TYPE":0,"CLASSIFICATION_TYPE":"U","NORAD_CAT_ID":53001,"ELEMENT_SET_NO":999,"REV_AT_EPOCH":20279,"BSTAR":2.3947554e-5,"MEAN_MOTION_DOT":9.3e-7,"MEAN_MOTION_DDOT":0},{"OBJECT_NAME":"CZ-2D DEB","OBJECT_ID":"2010-027D","EPOCH":"2026-03-07T13:36:06.977952","MEAN_MOTION":15.23568143,"ECCENTRICITY":0.0065729,"INCLINATION":97.6621,"RA_OF_ASC_NODE":290.9585,"ARG_OF_PERICENTER":344.0278,"MEAN_ANOMALY":15.8885,"EPHEMERIS_TYPE":0,"CLASSIFICATION_TYPE":"U","NORAD_CAT_ID":38299,"ELEMENT_SET_NO":999,"REV_AT_EPOCH":83553,"BSTAR":0.0024156,"MEAN_MOTION_DOT":0.00061723,"MEAN_MOTION_DDOT":0}]
